{"type": "FeatureCollection", "features": [ {"type": "Feature", "properties": {"norad_id": 35744, "name": "IRIDIUM 33 DEB", "group": "iridium-33-debris", "lat": -50.46587217560059, "lon": -43.56744321819048, "alt_km": 677.9730997921397, "timestamp": "2025-12-22T18:58:53.818483+00:00", "meta": {"OBJECT_NAME": "IRIDIUM 33 DEB", "OBJECT_ID": "1997-051RX", "EPOCH": "2025-12-22T04:31:11.479584", "MEAN_MOTION": 14.71109579, "ECCENTRICITY": 0.00215595, "INCLINATION": 86.3295, "RA_OF_ASC_NODE": 321.1656, "ARG_OF_PERICENTER": 158.9993, "MEAN_ANOMALY": 201.2114, "EPHEMERIS_TYPE": 0, "CLASSIFICATION_TYPE": "U", "NORAD_CAT_ID": 35744, "ELEMENT_SET_NO": 999, "REV_AT_EPOCH": 87470, "BSTAR": 0.0011466876, "MEAN_MOTION_DOT": 7.1e-05, "MEAN_MOTION_DDOT": 0}, "tle": {"line1": "1 35744U 97051RX  25356.18832731  .00007100  00000+0  11467-2 0  9997", "line2": "2 35744  86.3295 321.1656 0021559 158.9993 201.2114 14.71109579874709"}}, "geometry": {"type": "Point", "coordinates": [-43.56744321819048, -50.46587217560059]}}, {"type": "Feature", "properties": {"norad_id": 35797, "name": "IRIDIUM 33 DEB", "group": "iridium-33-debris", "lat": 74.91466629500292, "lon": 131.60037285639822, "alt_km": 602.9255748233118, "timestamp": "2025-12-22T18:58:53.818494+00:00", "meta": {"OBJECT_NAME": "IRIDIUM 33 DEB", "OBJECT_ID": "1997-051SF", "EPOCH": "2025-12-20T04:58:23.124576", "MEAN_MOTION": 14.82943756, "ECCENTRICITY": 0.00144438, "INCLINATION": 86.3358, "RA_OF_ASC_NODE": 326.5409, "ARG_OF_PERICENTER": 124.2299, "MEAN_ANOMALY": 236.0295, "EPHEMERIS_TYPE": 0, "CLASSIFICATION_TYPE": "U", "NORAD_CAT_ID": 35797, "ELEMENT_SET_NO": 999, "REV_AT_EPOCH": 87451, "BSTAR": 0.0011307637, "MEAN_MOTION_DOT": 9.219e-05, "MEAN_MOTION_DDOT": 0}, "tle": {"line1": "1 35797U 97051SF  25354.20721209  .00009219  00000+0  11308-2 0  9990", "line2": "2 35797  86.3358 326.5409 0014443 124.2299 236.0295 14.82943756874511"}}, "geometry": {"type": "Point", "coordinates": [131.60037285639822, 74.91466629500292]}}, {"type": "Feature", "properties": {"norad_id": 35806, "name": "IRIDIUM 33 DEB", "group": "iridium-33-debris", "lat": -29.315572947460904, "lon": -161.73889965323744, "alt_km": 718.4455935914102, "timestamp": "2025-12-22T18:58:53.818504+00:00", "meta": {"OBJECT_NAME": "IRIDIUM 33 DEB", "OBJECT_ID": "1997-051SQ", "EPOCH": "2025-12-16T08:46:37.248096", "MEAN_MOTION": 14.57379748, "ECCENTRICITY": 0.00158634, "INCLINATION": 86.3444, "RA_OF_ASC_NODE": 19.032, "ARG_OF_PERICENTER": 64.1996, "MEAN_ANOMALY": 296.0847, "EPHEMERIS_TYPE": 0, "CLASSIFICATION_TYPE": "U", "NORAD_CAT_ID": 35806, "ELEMENT_SET_NO": 999, "REV_AT_EPOCH": 86377, "BSTAR": 0.00073764812, "MEAN_MOTION_DOT": 3.369e-05, "MEAN_MOTION_DDOT": 0}, "tle": {"line1": "1 35806U 97051SQ  25350.36570889  .00003369  00000+0  73765-3 0  9996", "line2": "2 35806  86.3444  19.0320 0015863  64.1996 296.0847 14.57379748863778"}}, "geometry": {"type": "Point", "coordinates": [-161.73889965323744, -29.315572947460904]}}, {"type": "Feature", "properties": {"norad_id": 35809, "name": "IRIDIUM 33 DEB", "group": "iridium-33-debris", "lat": 20.8800788410406, "lon": 149.36613199459168, "alt_km": 637.093204479268, "timestamp": "2025-12-22T18:58:53.818515+00:00", "meta": {"OBJECT_NAME": "IRIDIUM 33 DEB", "OBJECT_ID": "1997-051ST", "EPOCH": "2025-12-21T16:13:39.380736", "MEAN_MOTION": 14.75870585, "ECCENTRICITY": 0.00102664, "INCLINATION": 86.3279, "RA_OF_ASC_NODE": 331.2775, "ARG_OF_PERICENTER": 205.8578, "MEAN_ANOMALY": 154.2129, "EPHEMERIS_TYPE": 0, "CLASSIFICATION_TYPE": "U", "NORAD_CAT_ID": 35809, "ELEMENT_SET_NO": 999, "REV_AT_EPOCH": 86939, "BSTAR": 0.0013721853, "MEAN_MOTION_DOT": 9.452e-05, "MEAN_MOTION_DDOT": 0}, "tle": {"line1": "1 35809U 97051ST  25355.67615024  .00009452  00000+0  13722-2 0  9994", "line2": "2 35809  86.3279 331.2775 0010266 205.8578 154.2129 14.75870585869399"}}, "geometry": {"type": "Point", "coordinates": [149.36613199459168, 20.8800788410406]}}, {"type": "Feature", "properties": {"norad_id": 35846, "name": "IRIDIUM 33 DEB", "group": "iridium-33-debris", "lat": -21.72097045019318, "lon": -124.00109293350314, "alt_km": 747.0763356470052, "timestamp": "2025-12-22T18:58:53.818526+00:00", "meta": {"OBJECT_NAME": "IRIDIUM 33 DEB", "OBJECT_ID": "1997-051SW", "EPOCH": "2025-12-20T14:27:58.084704", "MEAN_MOTION": 14.43184351, "ECCENTRICITY": 0.0019529, "INCLINATION": 86.3741, "RA_OF_ASC_NODE": 55.4852, "ARG_OF_PERICENTER": 145.7638, "MEAN_ANOMALY": 214.4826, "EPHEMERIS_TYPE": 0, "CLASSIFICATION_TYPE": "U", "NORAD_CAT_ID": 35846, "ELEMENT_SET_NO": 999, "REV_AT_EPOCH": 71442, "BSTAR": 0.00034499, "MEAN_MOTION_DOT": 1.181e-05, "MEAN_MOTION_DDOT": 0}, "tle": {"line1": "1 35846U 97051SW  25354.60275561  .00001181  00000+0  34499-3 0  9991", "line2": "2 35846  86.3741  55.4852 0019529 145.7638 214.4826 14.43184351714425"}}, "geometry": {"type": "Point", "coordinates": [-124.00109293350314, -21.72097045019318]}}, {"type": "Feature", "properties": {"norad_id": 35848, "name": "IRIDIUM 33 DEB", "group": "iridium-33-debris", "lat": -37.65722306958472, "lon": -165.60389644364446, "alt_km": 636.8562469234766, "timestamp": "2025-12-22T18:58:53.818537+00:00", "meta": {"OBJECT_NAME": "IRIDIUM 33 DEB", "OBJECT_ID": "1997-051SY", "EPOCH": "2025-12-20T18:54:17.008704", "MEAN_MOTION": 14.78786946, "ECCENTRICITY": 0.00088391, "INCLINATION": 86.3889, "RA_OF_ASC_NODE": 12.5039, "ARG_OF_PERICENTER": 160.7491, "MEAN_ANOMALY": 199.4066, "EPHEMERIS_TYPE": 0, "CLASSIFICATION_TYPE": "U", "NORAD_CAT_ID": 35848, "ELEMENT_SET_NO": 999, "REV_AT_EPOCH": 66809, "BSTAR": 0.00088484231, "MEAN_MOTION_DOT": 6.531e-05, "MEAN_MOTION_DDOT": 0}, "tle": {"line1": "1 35848U 97051SY  25354.78769686  .00006531  00000+0  88484-3 0  9995", "line2": "2 35848  86.3889  12.5039 0008839 160.7491 199.4066 14.78786946668092"}}, "geometry": {"type": "Point", "coordinates": [-165.60389644364446, -37.65722306958472]}}, {"type": "Feature", "properties": {"norad_id": 35850, "name": "IRIDIUM 33 DEB", "group": "iridium-33-debris", "lat": -9.875194461517191, "lon": 160.30849282519333, "alt_km": 631.0485000102262, "timestamp": "2025-12-22T18:58:53.818547+00:00", "meta": {"OBJECT_NAME": "IRIDIUM 33 DEB", "OBJECT_ID": "1997-051TA", "EPOCH": "2025-12-22T05:08:12.137568", "MEAN_MOTION": 14.79013382, "ECCENTRICITY": 0.00105322, "INCLINATION": 86.3492, "RA_OF_ASC_NODE": 339.9341, "ARG_OF_PERICENTER": 151.6357, "MEAN_ANOMALY": 208.5439, "EPHEMERIS_TYPE": 0, "CLASSIFICATION_TYPE": "U", "NORAD_CAT_ID": 35850, "ELEMENT_SET_NO": 999, "REV_AT_EPOCH": 71497, "BSTAR": 0.0017731547, "MEAN_MOTION_DOT": 0.00013147, "MEAN_MOTION_DDOT": 0}, "tle": {"line1": "1 35850U 97051TA  25356.21402937  .00013147  00000+0  17732-2 0  9999", "line2": "2 35850  86.3492 339.9341 0010532 151.6357 208.5439 14.79013382714973"}}, "geometry": {"type": "Point", "coordinates": [160.30849282519333, -9.875194461517191]}}, {"type": "Feature", "properties": {"norad_id": 35915, "name": "IRIDIUM 33 DEB", "group": "iridium-33-debris", "lat": -19.326527422918527, "lon": 159.64817256897518, "alt_km": 626.029546268318, "timestamp": "2025-12-22T18:58:53.818558+00:00", "meta": {"OBJECT_NAME": "IRIDIUM 33 DEB", "OBJECT_ID": "1997-051TY", "EPOCH": "2025-12-21T06:24:31.855104", "MEAN_MOTION": 14.80926982, "ECCENTRICITY": 0.0012051, "INCLINATION": 86.3439, "RA_OF_ASC_NODE": 339.0596, "ARG_OF_PERICENTER": 155.4258, "MEAN_ANOMALY": 204.754, "EPHEMERIS_TYPE": 0, "CLASSIFICATION_TYPE": "U", "NORAD_CAT_ID": 35915, "ELEMENT_SET_NO": 999, "REV_AT_EPOCH": 8212, "BSTAR": 0.0012339, "MEAN_MOTION_DOT": 9.58e-05, "MEAN_MOTION_DDOT": 0}, "tle": {"line1": "1 35915U 97051TY  25355.26703536  .00009580  00000+0  12339-2 0  9998", "line2": "2 35915  86.3439 339.0596 0012051 155.4258 204.7540 14.80926982 82126"}}, "geometry": {"type": "Point", "coordinates": [159.64817256897518, -19.326527422918527]}}, {"type": "Feature", "properties": {"norad_id": 35918, "name": "IRIDIUM 33 DEB", "group": "iridium-33-debris", "lat": 5.222983444071046, "lon": 71.8314162003624, "alt_km": 737.1188439917887, "timestamp": "2025-12-22T18:58:53.818581+00:00", "meta": {"OBJECT_NAME": "IRIDIUM 33 DEB", "OBJECT_ID": "1997-051UB", "EPOCH": "2025-12-21T23:54:39.298752", "MEAN_MOTION": 14.51316064, "ECCENTRICITY": 0.0028353, "INCLINATION": 86.4007, "RA_OF_ASC_NODE": 71.8428, "ARG_OF_PERICENTER": 139.9313, "MEAN_ANOMALY": 36.6776, "EPHEMERIS_TYPE": 0, "CLASSIFICATION_TYPE": "U", "NORAD_CAT_ID": 35918, "ELEMENT_SET_NO": 999, "REV_AT_EPOCH": 85341, "BSTAR": 0.0010087, "MEAN_MOTION_DOT": 4.056e-05, "MEAN_MOTION_DDOT": 0}, "tle": {"line1": "1 35918U 97051UB  25355.99628818  .00004056  00000+0  10087-2 0  9991", "line2": "2 35918  86.4007  71.8428 0028353 139.9313  36.6776 14.51316064853410"}}, "geometry": {"type": "Point", "coordinates": [71.8314162003624, 5.222983444071046]}}, {"type": "Feature", "properties": {"norad_id": 35929, "name": "IRIDIUM 33 DEB", "group": "iridium-33-debris", "lat": 4.269273544060143, "lon": 127.58811144900042, "alt_km": 571.810365303686, "timestamp": "2025-12-22T18:58:53.818593+00:00", "meta": {"OBJECT_NAME": "IRIDIUM 33 DEB", "OBJECT_ID": "1997-051UN", "EPOCH": "2025-12-19T03:54:47.819808", "MEAN_MOTION": 15.02824577, "ECCENTRICITY": 0.00169983, "INCLINATION": 86.3333, "RA_OF_ASC_NODE": 309.5832, "ARG_OF_PERICENTER": 16.9141, "MEAN_ANOMALY": 343.2656, "EPHEMERIS_TYPE": 0, "CLASSIFICATION_TYPE": "U", "NORAD_CAT_ID": 35929, "ELEMENT_SET_NO": 999, "REV_AT_EPOCH": 87876, "BSTAR": 0.0020745591, "MEAN_MOTION_DOT": 0.00027961, "MEAN_MOTION_DDOT": 0}, "tle": {"line1": "1 35929U 97051UN  25353.16305347  .00027961  00000+0  20746-2 0  9992", "line2": "2 35929  86.3333 309.5832 0016998  16.9141 343.2656 15.02824577878767"}}, "geometry": {"type": "Point", "coordinates": [127.58811144900042, 4.269273544060143]}}]}